start=new Date('2022-09-26T00:00:00.000Z').valueOf();
sats=[{"RCS_SIZE":"LARGE","TIME_SYSTEM":"UTC","INCLINATION":"53.0558","MEAN_MOTION_DOT":"0.00001172","PERIOD":"95.592","SITE":"AFETR","CENTER_NAME":"EARTH","OBJECT_ID":"2020-062AY","LAUNCH_DATE":"2020-09-03","ARG_OF_PERICENTER":"64.0507","NORAD_CAT_ID":"46371","FILE":"3583351","REF_FRAME":"TEME","PERIAPSIS":"546.039","EPHEMERIS_TYPE":"0","CLASSIFICATION_TYPE":"U","RA_OF_ASC_NODE":"259.4962","COUNTRY_CODE":"US","DECAY_DATE":null,"APOAPSIS":"548.352","BSTAR":"0.00009757500000","TLE_LINE1":"1 46371U 20062AY  22268.23921584  .00001172  00000-0  97575-4 0  9993","SEMIMAJOR_AXIS":"6925.331","MEAN_MOTION":"15.06405785","ECCENTRICITY":"0.00016700","EPOCH":"2022-09-25T05:44:28.248576","ELEMENT_SET_NO":"999","MEAN_ELEMENT_THEORY":"SGP4","REV_AT_EPOCH":"11446","OBJECT_NAME":"STARLINK-1688","MEAN_ANOMALY":"296.0654","OBJECT_TYPE":"PAYLOAD","MEAN_MOTION_DDOT":"0.0000000000000","GP_ID":"213442738","TLE_LINE2":"2 46371  53.0558 259.4962 0001670  64.0507 296.0654 15.06405785114461"},{"CLASSIFICATION_TYPE":"U","RA_OF_ASC_NODE":"279.1421","DECAY_DATE":null,"COUNTRY_CODE":"US","TLE_LINE1":"1 46372U 20062AZ  22268.31477958 -.00001289  00000-0 -67640-4 0  9995","BSTAR":"-0.00006764000000","SEMIMAJOR_AXIS":"6925.346","APOAPSIS":"548.328","EPOCH":"2022-09-25T07:33:16.955712","ECCENTRICITY":"0.00016130","MEAN_MOTION":"15.06400925","ELEMENT_SET_NO":"999","MEAN_ELEMENT_THEORY":"SGP4","OBJECT_NAME":"STARLINK-1689","REV_AT_EPOCH":"11419","OBJECT_TYPE":"PAYLOAD","MEAN_ANOMALY":"291.4337","MEAN_MOTION_DDOT":"0.0000000000000","GP_ID":"213441988","TLE_LINE2":"2 46372  53.0552 279.1421 0001613  68.6824 291.4337 15.06400925114192","RCS_SIZE":"LARGE","TIME_SYSTEM":"UTC","INCLINATION":"53.0552","MEAN_MOTION_DOT":"-0.00001289","PERIOD":"95.592","SITE":"AFETR","CENTER_NAME":"EARTH","ARG_OF_PERICENTER":"68.6824","LAUNCH_DATE":"2020-09-03","OBJECT_ID":"2020-062AZ","FILE":"3583351","NORAD_CAT_ID":"46372","PERIAPSIS":"546.094","REF_FRAME":"TEME","EPHEMERIS_TYPE":"0"},{"PERIOD":"95.592","CENTER_NAME":"EARTH","SITE":"AFETR","RCS_SIZE":"LARGE","INCLINATION":"53.0536","MEAN_MOTION_DOT":"0.00002397","TIME_SYSTEM":"UTC","PERIAPSIS":"546.228","REF_FRAME":"TEME","EPHEMERIS_TYPE":"0","OBJECT_ID":"2020-062BB","LAUNCH_DATE":"2020-09-03","ARG_OF_PERICENTER":"91.5664","NORAD_CAT_ID":"46374","FILE":"3583179","ELEMENT_SET_NO":"999","MEAN_MOTION":"15.06401878","EPOCH":"2022-09-25T12:39:47.324448","ECCENTRICITY":"0.00014150","MEAN_ELEMENT_THEORY":"SGP4","RA_OF_ASC_NODE":"208.1981","CLASSIFICATION_TYPE":"U","APOAPSIS":"548.188","BSTAR":"0.00017977000000","TLE_LINE1":"1 46374U 20062BB  22268.52763107  .00002397  00000-0  17977-3 0  9990","SEMIMAJOR_AXIS":"6925.343","DECAY_DATE":null,"COUNTRY_CODE":"US","GP_ID":"213418199","TLE_LINE2":"2 46374  53.0536 208.1981 0001415  91.5664 268.5487 15.06401878115376","MEAN_MOTION_DDOT":"0.0000000000000","REV_AT_EPOCH":"11537","OBJECT_NAME":"STARLINK-1711","MEAN_ANOMALY":"268.5487","OBJECT_TYPE":"PAYLOAD"},{"TLE_LINE2":"2 46375  53.0548 234.9071 0001434  76.0652 284.0497 15.06390723114798","GP_ID":"213442988","MEAN_MOTION_DDOT":"0.0000000000000","REV_AT_EPOCH":"11479","OBJECT_NAME":"STARLINK-1724","MEAN_ANOMALY":"284.0497","OBJECT_TYPE":"PAYLOAD","ELEMENT_SET_NO":"999","MEAN_MOTION":"15.06390723","ECCENTRICITY":"0.00014340","EPOCH":"2022-09-25T03:27:08.504352","MEAN_ELEMENT_THEORY":"SGP4","RA_OF_ASC_NODE":"234.9071","CLASSIFICATION_TYPE":"U","APOAPSIS":"548.235","TLE_LINE1":"1 46375U 20062BC  22268.14384843 -.00000410  00000-0 -86495-5 0  9994","BSTAR":"-0.00000864950000","SEMIMAJOR_AXIS":"6925.377","COUNTRY_CODE":"US","DECAY_DATE":null,"REF_FRAME":"TEME","PERIAPSIS":"546.249","EPHEMERIS_TYPE":"0","OBJECT_ID":"2020-062BC","LAUNCH_DATE":"2020-09-03","ARG_OF_PERICENTER":"76.0652","NORAD_CAT_ID":"46375","FILE":"3583351","PERIOD":"95.593","CENTER_NAME":"EARTH","SITE":"AFETR","RCS_SIZE":"LARGE","MEAN_MOTION_DOT":"-0.00000410","INCLINATION":"53.0548","TIME_SYSTEM":"UTC"},{"MEAN_ANOMALY":"284.0197","OBJECT_TYPE":"PAYLOAD","OBJECT_NAME":"STARLINK-1742","REV_AT_EPOCH":"11483","TLE_LINE2":"2 46376  53.0545 233.6661 0001422  76.0950 284.0197 15.06402756114837","GP_ID":"213443238","MEAN_MOTION_DDOT":"0.0000000000000","APOAPSIS":"548.190","TLE_LINE1":"1 46376U 20062BD  22268.42396969  .00002298  00000-0  17308-3 0  9997","BSTAR":"0.00017308000000","SEMIMAJOR_AXIS":"6925.340","DECAY_DATE":null,"COUNTRY_CODE":"US","RA_OF_ASC_NODE":"233.6661","CLASSIFICATION_TYPE":"U","MEAN_ELEMENT_THEORY":"SGP4","ELEMENT_SET_NO":"999","MEAN_MOTION":"15.06402756","ECCENTRICITY":"0.00014220","EPOCH":"2022-09-25T10:10:30.981216","FILE":"3583351","NORAD_CAT_ID":"46376","OBJECT_ID":"2020-062BD","LAUNCH_DATE":"2020-09-03","ARG_OF_PERICENTER":"76.0950","EPHEMERIS_TYPE":"0","REF_FRAME":"TEME","PERIAPSIS":"546.220","MEAN_MOTION_DOT":"0.00002298","INCLINATION":"53.0545","TIME_SYSTEM":"UTC","RCS_SIZE":"LARGE","CENTER_NAME":"EARTH","SITE":"AFETR","PERIOD":"95.592"},{"RCS_SIZE":"LARGE","TIME_SYSTEM":"UTC","INCLINATION":"53.0538","MEAN_MOTION_DOT":"0.00001449","PERIOD":"95.592","SITE":"AFETR","CENTER_NAME":"EARTH","OBJECT_ID":"2020-062BH","LAUNCH_DATE":"2020-09-03","ARG_OF_PERICENTER":"68.0542","FILE":"3583351","NORAD_CAT_ID":"46380","REF_FRAME":"TEME","PERIAPSIS":"546.163","EPHEMERIS_TYPE":"0","CLASSIFICATION_TYPE":"U","RA_OF_ASC_NODE":"259.4209","DECAY_DATE":null,"COUNTRY_CODE":"US","APOAPSIS":"548.206","BSTAR":"0.00011611000000","TLE_LINE1":"1 46380U 20062BH  22268.25764378  .00001449  00000-0  11611-3 0  9994","SEMIMAJOR_AXIS":"6925.319","MEAN_MOTION":"15.06409527","EPOCH":"2022-09-25T06:11:00.422592","ECCENTRICITY":"0.00014750","ELEMENT_SET_NO":"999","MEAN_ELEMENT_THEORY":"SGP4","REV_AT_EPOCH":"11446","OBJECT_NAME":"STARLINK-1758","MEAN_ANOMALY":"292.0603","OBJECT_TYPE":"PAYLOAD","MEAN_MOTION_DDOT":"0.0000000000000","TLE_LINE2":"2 46380  53.0538 259.4209 0001475  68.0542 292.0603 15.06409527114467","GP_ID":"213441488"},{"GP_ID":"213441738","TLE_LINE2":"2 46382  53.0543 234.2045 0001632  54.7562 305.3580 15.06397663114822","MEAN_MOTION_DDOT":"0.0000000000000","OBJECT_NAME":"STARLINK-1769","REV_AT_EPOCH":"11482","OBJECT_TYPE":"PAYLOAD","MEAN_ANOMALY":"305.3580","ELEMENT_SET_NO":"999","ECCENTRICITY":"0.00016320","EPOCH":"2022-09-25T07:20:40.267968","MEAN_MOTION":"15.06397663","MEAN_ELEMENT_THEORY":"SGP4","RA_OF_ASC_NODE":"234.2045","CLASSIFICATION_TYPE":"U","TLE_LINE1":"1 46382U 20062BK  22268.30602162  .00000925  00000-0  80998-4 0  9997","BSTAR":"0.00008099800000","SEMIMAJOR_AXIS":"6925.356","APOAPSIS":"548.351","DECAY_DATE":null,"COUNTRY_CODE":"US","REF_FRAME":"TEME","PERIAPSIS":"546.091","EPHEMERIS_TYPE":"0","ARG_OF_PERICENTER":"54.7562","OBJECT_ID":"2020-062BK","LAUNCH_DATE":"2020-09-03","FILE":"3583351","NORAD_CAT_ID":"46382","PERIOD":"95.592","CENTER_NAME":"EARTH","SITE":"AFETR","RCS_SIZE":"LARGE","INCLINATION":"53.0543","MEAN_MOTION_DOT":"0.00000925","TIME_SYSTEM":"UTC"},{"MEAN_ANOMALY":"300.8961","OBJECT_TYPE":"PAYLOAD","OBJECT_NAME":"STARLINK-1770","REV_AT_EPOCH":"11419","GP_ID":"213442489","TLE_LINE2":"2 46383  53.0539 278.9672 0001783  59.2203 300.8961 15.06401616114195","MEAN_MOTION_DDOT":"0.0000000000000","APOAPSIS":"548.443","TLE_LINE1":"1 46383U 20062BL  22268.35900328  .00002489  00000-0  18592-3 0  9995","SEMIMAJOR_AXIS":"6925.344","BSTAR":"0.00018592000000","DECAY_DATE":null,"COUNTRY_CODE":"US","RA_OF_ASC_NODE":"278.9672","CLASSIFICATION_TYPE":"U","MEAN_ELEMENT_THEORY":"SGP4","ELEMENT_SET_NO":"999","MEAN_MOTION":"15.06401616","EPOCH":"2022-09-25T08:36:57.883392","ECCENTRICITY":"0.00017830","NORAD_CAT_ID":"46383","FILE":"3583351","LAUNCH_DATE":"2020-09-03","OBJECT_ID":"2020-062BL","ARG_OF_PERICENTER":"59.2203","EPHEMERIS_TYPE":"0","PERIAPSIS":"545.974","REF_FRAME":"TEME","MEAN_MOTION_DOT":"0.00002489","INCLINATION":"53.0539","TIME_SYSTEM":"UTC","RCS_SIZE":"LARGE","CENTER_NAME":"EARTH","SITE":"AFETR","PERIOD":"95.592"},{"GP_ID":"213504549","TLE_LINE2":"2 46384  53.0530 277.1487 0001662  78.4907 281.6269 15.06398448114254","MEAN_MOTION_DDOT":"0.0000000000000","REV_AT_EPOCH":"11425","OBJECT_NAME":"STARLINK-1771","MEAN_ANOMALY":"281.6269","OBJECT_TYPE":"PAYLOAD","ELEMENT_SET_NO":"999","MEAN_MOTION":"15.06398448","ECCENTRICITY":"0.00016620","EPOCH":"2022-09-25T18:15:31.235616","MEAN_ELEMENT_THEORY":"SGP4","RA_OF_ASC_NODE":"277.1487","CLASSIFICATION_TYPE":"U","APOAPSIS":"548.369","TLE_LINE1":"1 46384U 20062BM  22268.76077819  .00001651  00000-0  12975-3 0  9990","SEMIMAJOR_AXIS":"6925.353","BSTAR":"0.00012975000000","DECAY_DATE":null,"COUNTRY_CODE":"US","REF_FRAME":"TEME","PERIAPSIS":"546.067","EPHEMERIS_TYPE":"0","LAUNCH_DATE":"2020-09-03","OBJECT_ID":"2020-062BM","ARG_OF_PERICENTER":"78.4907","NORAD_CAT_ID":"46384","FILE":"3583828","PERIOD":"95.592","CENTER_NAME":"EARTH","SITE":"AFETR","RCS_SIZE":"LARGE","INCLINATION":"53.0530","MEAN_MOTION_DOT":"0.00001651","TIME_SYSTEM":"UTC"},{"REV_AT_EPOCH":"10945","OBJECT_NAME":"STARLINK-1644","MEAN_ANOMALY":"281.0302","OBJECT_TYPE":"PAYLOAD","MEAN_MOTION_DDOT":"0.0000000000000","GP_ID":"213504800","TLE_LINE2":"2 46532  53.0559  77.1474 0001334  79.0837 281.0302 15.06396552109451","CLASSIFICATION_TYPE":"U","RA_OF_ASC_NODE":"77.1474","DECAY_DATE":null,"COUNTRY_CODE":"US","APOAPSIS":"548.148","TLE_LINE1":"1 46532U 20070A   22268.76078434  .00000160  00000-0  29626-4 0  9994","SEMIMAJOR_AXIS":"6925.359","BSTAR":"0.00002962600000","MEAN_MOTION":"15.06396552","ECCENTRICITY":"0.00013340","EPOCH":"2022-09-25T18:15:31.766976","ELEMENT_SET_NO":"999","MEAN_ELEMENT_THEORY":"SGP4","OBJECT_ID":"2020-070A","LAUNCH_DATE":"2020-10-06","ARG_OF_PERICENTER":"79.0837","NORAD_CAT_ID":"46532","FILE":"3583828","REF_FRAME":"TEME","PERIAPSIS":"546.300","EPHEMERIS_TYPE":"0","RCS_SIZE":"LARGE","TIME_SYSTEM":"UTC","MEAN_MOTION_DOT":"0.00000160","INCLINATION":"53.0559","PERIOD":"95.592","SITE":"AFETR","CENTER_NAME":"EARTH"}];
